start=new Date('2022-11-29T00:00:00.000Z').valueOf();
sats=[{"DECAY_DATE":null,"ELEMENT_SET_NO":"999","MEAN_MOTION":"15.06391101","COUNTRY_CODE":"US","OBJECT_NAME":"STARLINK-2696","RCS_SIZE":"LARGE","TIME_SYSTEM":"UTC","PERIOD":"95.593","ECCENTRICITY":"0.00014160","APOAPSIS":"548.221","RA_OF_ASC_NODE":"177.4180","SITE":"AFETR","EPOCH":"2022-11-28T06:27:30.799872","CENTER_NAME":"EARTH","GP_ID":"219004219","MEAN_MOTION_DDOT":"0.0000000000000","MEAN_ELEMENT_THEORY":"SGP4","MEAN_ANOMALY":"278.0710","MEAN_MOTION_DOT":"-0.00001719","CLASSIFICATION_TYPE":"U","FILE":"3672391","ARG_OF_PERICENTER":"82.0439","OBJECT_ID":"2021-040BJ","BSTAR":"-0.00009655300000","SEMIMAJOR_AXIS":"6925.376","TLE_LINE1":"1 48484U 21040BJ  22332.26910648 -.00001719  00000-0 -96553-4 0  9995","NORAD_CAT_ID":"48484","PERIAPSIS":"546.260","REV_AT_EPOCH":"8714","INCLINATION":"53.0538","TLE_LINE2":"2 48484  53.0538 177.4180 0001416  82.0439 278.0710 15.06391101 87142","REF_FRAME":"TEME","EPHEMERIS_TYPE":"0","LAUNCH_DATE":"2021-05-09","OBJECT_TYPE":"PAYLOAD"},{"DECAY_DATE":null,"ELEMENT_SET_NO":"999","MEAN_MOTION":"15.06393366","COUNTRY_CODE":"US","OBJECT_NAME":"STARLINK-2500","PERIOD":"95.593","TIME_SYSTEM":"UTC","RCS_SIZE":"LARGE","SITE":"AFETR","EPOCH":"2022-11-27T22:24:26.441568","ECCENTRICITY":"0.00016220","RA_OF_ASC_NODE":"178.5655","APOAPSIS":"548.357","GP_ID":"218966382","MEAN_MOTION_DDOT":"0.0000000000000","CENTER_NAME":"EARTH","MEAN_ELEMENT_THEORY":"SGP4","MEAN_ANOMALY":"299.8461","MEAN_MOTION_DOT":"-0.00001785","FILE":"3671847","ARG_OF_PERICENTER":"60.2689","CLASSIFICATION_TYPE":"U","SEMIMAJOR_AXIS":"6925.369","OBJECT_ID":"2021-040BK","BSTAR":"-0.00010097000000","INCLINATION":"53.0543","PERIAPSIS":"546.111","REV_AT_EPOCH":"8709","TLE_LINE1":"1 48485U 21040BK  22331.93363937 -.00001785  00000-0 -10097-3 0  9993","NORAD_CAT_ID":"48485","REF_FRAME":"TEME","TLE_LINE2":"2 48485  53.0543 178.5655 0001622  60.2689 299.8461 15.06393366 87095","OBJECT_TYPE":"PAYLOAD","EPHEMERIS_TYPE":"0","LAUNCH_DATE":"2021-05-09"},{"GP_ID":"218966405","MEAN_MOTION_DDOT":"0.0000000000000","CENTER_NAME":"EARTH","EPOCH":"2022-11-27T17:41:45.161664","SITE":"AFETR","APOAPSIS":"548.721","RA_OF_ASC_NODE":"179.4286","ECCENTRICITY":"0.00021590","TIME_SYSTEM":"UTC","PERIOD":"95.592","RCS_SIZE":"LARGE","OBJECT_NAME":"STARLINK-2496","COUNTRY_CODE":"US","MEAN_MOTION":"15.06395875","ELEMENT_SET_NO":"999","DECAY_DATE":null,"OBJECT_TYPE":"PAYLOAD","LAUNCH_DATE":"2021-05-09","EPHEMERIS_TYPE":"0","TLE_LINE2":"2 48486  53.0547 179.4286 0002159  61.1942 298.9263 15.06395875 87062","REF_FRAME":"TEME","REV_AT_EPOCH":"8706","PERIAPSIS":"545.731","INCLINATION":"53.0547","NORAD_CAT_ID":"48486","TLE_LINE1":"1 48486U 21040BL  22331.73732826 -.00000198  00000-0  56247-5 0  9994","SEMIMAJOR_AXIS":"6925.361","BSTAR":"0.00000562470000","OBJECT_ID":"2021-040BL","ARG_OF_PERICENTER":"61.1942","FILE":"3671844","CLASSIFICATION_TYPE":"U","MEAN_MOTION_DOT":"-0.00000198","MEAN_ELEMENT_THEORY":"SGP4","MEAN_ANOMALY":"298.9263"},{"OBJECT_NAME":"STARLINK-2494","COUNTRY_CODE":"US","MEAN_MOTION":"15.06400322","ELEMENT_SET_NO":"999","DECAY_DATE":null,"MEAN_MOTION_DDOT":"0.0000000000000","GP_ID":"219004235","CENTER_NAME":"EARTH","EPOCH":"2022-11-28T06:32:44.092320","SITE":"AFETR","APOAPSIS":"548.609","RA_OF_ASC_NODE":"177.0250","ECCENTRICITY":"0.00020170","PERIOD":"95.592","TIME_SYSTEM":"UTC","RCS_SIZE":"LARGE","ARG_OF_PERICENTER":"57.7180","FILE":"3672392","CLASSIFICATION_TYPE":"U","MEAN_MOTION_DOT":"0.00000243","MEAN_ANOMALY":"302.4004","MEAN_ELEMENT_THEORY":"SGP4","OBJECT_TYPE":"PAYLOAD","LAUNCH_DATE":"2021-05-09","EPHEMERIS_TYPE":"0","TLE_LINE2":"2 48487  53.0536 177.0250 0002017  57.7180 302.4004 15.06400322 87152","REF_FRAME":"TEME","INCLINATION":"53.0536","PERIAPSIS":"545.816","REV_AT_EPOCH":"8715","NORAD_CAT_ID":"48487","TLE_LINE1":"1 48487U 21040BM  22332.27273255  .00000243  00000-0  35255-4 0  9996","SEMIMAJOR_AXIS":"6925.348","BSTAR":"0.00003525500000","OBJECT_ID":"2021-040BM"},{"CENTER_NAME":"EARTH","MEAN_MOTION_DDOT":"0.0000000000000","GP_ID":"219006506","RCS_SIZE":"LARGE","TIME_SYSTEM":"UTC","PERIOD":"95.592","ECCENTRICITY":"0.00014530","RA_OF_ASC_NODE":"105.3420","APOAPSIS":"548.224","SITE":"AFETR","EPOCH":"2022-11-28T15:32:47.766912","COUNTRY_CODE":"US","OBJECT_NAME":"STARLINK-2063","DECAY_DATE":null,"ELEMENT_SET_NO":"999","MEAN_MOTION":"15.06398509","REF_FRAME":"TEME","TLE_LINE2":"2 48553  53.0546 105.3420 0001453  66.3106 293.8035 15.06398509 85234","EPHEMERIS_TYPE":"0","LAUNCH_DATE":"2021-05-15","OBJECT_TYPE":"PAYLOAD","OBJECT_ID":"2021-041A","BSTAR":"0.00007063700000","SEMIMAJOR_AXIS":"6925.353","TLE_LINE1":"1 48553U 21041A   22332.64777508  .00000771  00000-0  70637-4 0  9991","NORAD_CAT_ID":"48553","INCLINATION":"53.0546","PERIAPSIS":"546.212","REV_AT_EPOCH":"8523","MEAN_ELEMENT_THEORY":"SGP4","MEAN_ANOMALY":"293.8035","MEAN_MOTION_DOT":"0.00000771","CLASSIFICATION_TYPE":"U","FILE":"3672508","ARG_OF_PERICENTER":"66.3106"},{"MEAN_ELEMENT_THEORY":"SGP4","MEAN_ANOMALY":"268.7371","MEAN_MOTION_DOT":"-0.00000697","CLASSIFICATION_TYPE":"U","FILE":"3672600","ARG_OF_PERICENTER":"91.3778","REF_FRAME":"TEME","TLE_LINE2":"2 48554  53.0543 105.3183 0001404  91.3778 268.7371 15.06394531 85186","EPHEMERIS_TYPE":"0","LAUNCH_DATE":"2021-05-15","OBJECT_TYPE":"PAYLOAD","OBJECT_ID":"2021-041B","BSTAR":"-0.00002788200000","SEMIMAJOR_AXIS":"6925.365","TLE_LINE1":"1 48554U 21041B   22332.65515129 -.00000697  00000-0 -27882-4 0  9995","NORAD_CAT_ID":"48554","PERIAPSIS":"546.258","INCLINATION":"53.0543","REV_AT_EPOCH":"8518","COUNTRY_CODE":"US","OBJECT_NAME":"STARLINK-2139","DECAY_DATE":null,"ELEMENT_SET_NO":"999","MEAN_MOTION":"15.06394531","CENTER_NAME":"EARTH","MEAN_MOTION_DDOT":"0.0000000000000","GP_ID":"219008293","RCS_SIZE":"LARGE","TIME_SYSTEM":"UTC","PERIOD":"95.592","ECCENTRICITY":"0.00014040","RA_OF_ASC_NODE":"105.3183","APOAPSIS":"548.203","SITE":"AFETR","EPOCH":"2022-11-28T15:43:25.071456"},{"MEAN_MOTION_DOT":"0.00000838","MEAN_ANOMALY":"296.3514","MEAN_ELEMENT_THEORY":"SGP4","CLASSIFICATION_TYPE":"U","ARG_OF_PERICENTER":"63.7650","FILE":"3672600","REF_FRAME":"TEME","TLE_LINE2":"2 48555  53.0554 115.1962 0001701  63.7650 296.3514 15.06403861 85098","LAUNCH_DATE":"2021-05-15","EPHEMERIS_TYPE":"0","OBJECT_TYPE":"PAYLOAD","BSTAR":"0.00007517200000","OBJECT_ID":"2021-041C","SEMIMAJOR_AXIS":"6925.337","NORAD_CAT_ID":"48555","TLE_LINE1":"1 48555U 21041C   22332.68370989  .00000838  00000-0  75172-4 0  9992","PERIAPSIS":"546.024","INCLINATION":"53.0554","REV_AT_EPOCH":"8509","COUNTRY_CODE":"US","OBJECT_NAME":"STARLINK-2145","DECAY_DATE":null,"MEAN_MOTION":"15.06403861","ELEMENT_SET_NO":"999","CENTER_NAME":"EARTH","GP_ID":"219008292","MEAN_MOTION_DDOT":"0.0000000000000","RCS_SIZE":"LARGE","PERIOD":"95.592","TIME_SYSTEM":"UTC","RA_OF_ASC_NODE":"115.1962","APOAPSIS":"548.380","ECCENTRICITY":"0.00017010","EPOCH":"2022-11-28T16:24:32.534496","SITE":"AFETR"},{"CENTER_NAME":"EARTH","GP_ID":"218997811","MEAN_MOTION_DDOT":"0.0000000000000","RA_OF_ASC_NODE":"119.1150","APOAPSIS":"548.438","ECCENTRICITY":"0.00017300","EPOCH":"2022-11-27T19:26:37.049856","SITE":"AFETR","RCS_SIZE":"LARGE","PERIOD":"95.593","TIME_SYSTEM":"UTC","OBJECT_NAME":"STARLINK-2151","COUNTRY_CODE":"US","MEAN_MOTION":"15.06391308","ELEMENT_SET_NO":"999","DECAY_DATE":null,"LAUNCH_DATE":"2021-05-15","EPHEMERIS_TYPE":"0","OBJECT_TYPE":"PAYLOAD","TLE_LINE2":"2 48556  53.0543 119.1150 0001730  54.9315 305.1836 15.06391308 84965","REF_FRAME":"TEME","NORAD_CAT_ID":"48556","TLE_LINE1":"1 48556U 21041D   22331.81015104  .00000987  00000-0  85165-4 0  9990","REV_AT_EPOCH":"8496","PERIAPSIS":"546.042","INCLINATION":"53.0543","BSTAR":"0.00008516500000","OBJECT_ID":"2021-041D","SEMIMAJOR_AXIS":"6925.375","CLASSIFICATION_TYPE":"U","ARG_OF_PERICENTER":"54.9315","FILE":"3672065","MEAN_MOTION_DOT":"0.00000987","MEAN_ANOMALY":"305.1836","MEAN_ELEMENT_THEORY":"SGP4"},{"REF_FRAME":"TEME","TLE_LINE2":"2 48557  53.0542 105.2066 0001542  61.1702 298.9442 15.06400805 85234","LAUNCH_DATE":"2021-05-15","EPHEMERIS_TYPE":"0","OBJECT_TYPE":"PAYLOAD","BSTAR":"-0.00002807300000","OBJECT_ID":"2021-041E","SEMIMAJOR_AXIS":"6925.346","NORAD_CAT_ID":"48557","TLE_LINE1":"1 48557U 21041E   22332.67726502 -.00000700  00000-0 -28073-4 0  9997","REV_AT_EPOCH":"8523","PERIAPSIS":"546.143","INCLINATION":"53.0542","MEAN_MOTION_DOT":"-0.00000700","MEAN_ELEMENT_THEORY":"SGP4","MEAN_ANOMALY":"298.9442","CLASSIFICATION_TYPE":"U","ARG_OF_PERICENTER":"61.1702","FILE":"3672604","CENTER_NAME":"EARTH","MEAN_MOTION_DDOT":"0.0000000000000","GP_ID":"219008354","RCS_SIZE":"LARGE","PERIOD":"95.592","TIME_SYSTEM":"UTC","RA_OF_ASC_NODE":"105.2066","APOAPSIS":"548.279","ECCENTRICITY":"0.00015420","EPOCH":"2022-11-28T16:15:15.697728","SITE":"AFETR","COUNTRY_CODE":"US","OBJECT_NAME":"STARLINK-2155","DECAY_DATE":null,"MEAN_MOTION":"15.06400805","ELEMENT_SET_NO":"999"},{"SITE":"AFETR","EPOCH":"2022-11-28T09:47:48.665760","ECCENTRICITY":"0.00016870","APOAPSIS":"548.363","RA_OF_ASC_NODE":"106.4314","PERIOD":"95.592","TIME_SYSTEM":"UTC","RCS_SIZE":"LARGE","MEAN_MOTION_DDOT":"0.0000000000000","GP_ID":"219003870","CENTER_NAME":"EARTH","ELEMENT_SET_NO":"999","MEAN_MOTION":"15.06406214","DECAY_DATE":null,"OBJECT_NAME":"STARLINK-2166","COUNTRY_CODE":"US","PERIAPSIS":"546.026","INCLINATION":"53.0534","REV_AT_EPOCH":"8514","TLE_LINE1":"1 48558U 21041F   22332.40820215 -.00000868  00000-0 -39371-4 0  9993","NORAD_CAT_ID":"48558","SEMIMAJOR_AXIS":"6925.330","OBJECT_ID":"2021-041F","BSTAR":"-0.00003937100000","OBJECT_TYPE":"PAYLOAD","EPHEMERIS_TYPE":"0","LAUNCH_DATE":"2021-05-15","TLE_LINE2":"2 48558  53.0534 106.4314 0001687  67.4510 292.6658 15.06406214 85141","REF_FRAME":"TEME","FILE":"3672365","ARG_OF_PERICENTER":"67.4510","CLASSIFICATION_TYPE":"U","MEAN_ANOMALY":"292.6658","MEAN_ELEMENT_THEORY":"SGP4","MEAN_MOTION_DOT":"-0.00000868"}];
